{
    "links": {
        "self": "http://www.neowsapp.com/rest/v1/neo/3404166?api_key=iIulBulltgU6a56xZRHN4H3l9WmuAYTsLGpBGhQ2"
    },
    "id": "3404166",
    "neo_reference_id": "3404166",
    "name": "(2007 YY59)",
    "designation": "2007 YY59",
    "nasa_jpl_url": "http://ssd.jpl.nasa.gov/sbdb.cgi?sstr=3404166",
    "absolute_magnitude_h": 24.1,
    "estimated_diameter": {
        "kilometers": {
            "estimated_diameter_min": 0.040230458,
            "estimated_diameter_max": 0.0899580388
        },
        "meters": {
            "estimated_diameter_min": 40.2304579834,
            "estimated_diameter_max": 89.9580388169
        },
        "miles": {
            "estimated_diameter_min": 0.0249980399,
            "estimated_diameter_max": 0.0558973165
        },
        "feet": {
            "estimated_diameter_min": 131.9896957704,
            "estimated_diameter_max": 295.1379320721
        }
    },
    "is_potentially_hazardous_asteroid": false,
    "close_approach_data": [
        {
            "close_approach_date": "2007-11-28",
            "close_approach_date_full": "2007-Nov-28 18:21",
            "epoch_date_close_approach": 1196274060000,
            "relative_velocity": {
                "kilometers_per_second": "7.1201888886",
                "kilometers_per_hour": "25632.6799989233",
                "miles_per_hour": "15927.1505248865"
            },
            "miss_distance": {
                "astronomical": "0.0355072177",
                "lunar": "13.8123076853",
                "kilometers": "5311804.137546299",
                "miles": "3300602.0401209662"
            },
            "orbiting_body": "Earth"
        }
    ],
    "orbital_data": {
        "orbit_id": "6",
        "orbit_determination_date": "2017-04-06 09:04:48",
        "first_observation_date": "2007-12-30",
        "last_observation_date": "2008-01-14",
        "data_arc_in_days": 15,
        "observations_used": 12,
        "orbit_uncertainty": "8",
        "minimum_orbit_intersection": ".0341808",
        "jupiter_tisserand_invariant": "3.200",
        "epoch_osculation": "2454469.5",
        "eccentricity": ".5917905537202316",
        "semi_major_axis": "2.498132675751846",
        "inclination": ".6838792140163588",
        "ascending_node_longitude": "121.9011599144071",
        "orbital_period": "1442.187333478175",
        "perihelion_distance": "1.019761356302057",
        "perihelion_argument": "300.9550312798744",
        "aphelion_distance": "3.976503995201634",
        "perihelion_time": "2454430.889438531929",
        "mean_anomaly": "9.638000421888959",
        "mean_motion": ".2496208305558857",
        "equinox": "J2000",
        "orbit_class": {
            "orbit_class_type": "AMO",
            "orbit_class_description": "Near-Earth asteroid orbits similar to that of 1221 Amor",
            "orbit_class_range": "1.017 AU < q (perihelion) < 1.3 AU"
        }
    },
    "is_sentry_object": false
}